ORBCOMM FM33            
1 25983U 99065D   25171.63101522  .00000646  00000+0  24826-3 0  9992
2 25983  45.0300 342.5851 0008444  85.7236 274.4578 14.40007470336567
ORBCOMM FM36            
1 25984U 99065E   25171.73942521  .00000675  00000+0  26723-3 0  9996
2 25984  45.0399  74.0599 0004182 331.0761  28.9855 14.38129602334935
ORBCOMM FM35            
1 25985U 99065F   25171.44360990  .00000671  00000+0  27140-3 0  9999
2 25985  45.0398  80.5209 0004377  35.9754 324.1388 14.37101465335257
ORBCOMM FM34            
1 25986U 99065G   25172.03519960  .00000559  00000+0  23385-3 0  9991
2 25986  45.0396  78.1899 0005095 359.8135   0.2711 14.37125259335498
ORBCOMM FM38            
1 33060U 08031A   25171.78724644  .00001138  00000+0  17148-3 0  9998
2 33060  48.4415 298.0909 0004294  51.7456 308.3846 14.81337326915289
ORBCOMM FM41            
1 33061U 08031B   25171.65910948  .00001178  00000+0  17812-3 0  9991
2 33061  48.4452 306.4922 0003644  32.4693 341.2328 14.80921910914756
ORBCOMM FM29            
1 33062U 08031C   25171.44342975  .00001293  00000+0  19253-3 0  9997
2 33062  48.4405 315.3250 0005306  33.2474 354.7672 14.81023438914638
ORBCOMM FM39            
1 33063U 08031D   25171.74231622  .00001032  00000+0  16439-3 0  9991
2 33063  48.4420 338.2123 0006516   6.4426 353.6571 14.79575598914320
